OBJECT_NAME,OBJECT_ID,EPOCH,MEAN_MOTION,ECCENTRICITY,INCLINATION,RA_OF_ASC_NODE,ARG_OF_PERICENTER,MEAN_ANOMALY,EPHEMERIS_TYPE,CLASSIFICATION_TYPE,NORAD_CAT_ID,ELEMENT_SET_NO,REV_AT_EPOCH,BSTAR,MEAN_MOTION_DOT,MEAN_MOTION_DDOT
STARLINK-37589,2026-154W,2026-07-19T20:00:01.999008,15.80921727,.0000996,53.1582,269.5310,73.4057,145.5823,0,U,69839,999,338,-.47602E-3,-.93844E-3,0
STARLINK-37487,2026-154X,2026-07-19T20:00:01.999008,15.80943133,.0001159,53.1585,269.0492,67.0532,23.5882,0,U,69840,999,339,-.69001E-3,-.135214E-2,0
STARLINK-37433,2026-154Y,2026-07-19T20:00:01.999008,15.80918977,.0000975,53.1588,269.0503,69.2558,20.7636,0,U,69841,999,351,-.5206E-3,-.102454E-2,0
STARLINK-37588,2026-154Z,2026-07-19T20:00:01.999008,15.80915849,.0001141,53.1634,269.0148,50.5435,56.6593,0,U,69842,999,342,-.4983E-3,-.98131E-3,0
STARLINK-37579,2026-154AA,2026-07-19T20:00:01.999008,15.80919210,.0000735,53.1587,269.0179,81.6308,23.9929,0,U,69843,999,342,-.50916E-3,-.100241E-2,0
STARLINK-37584,2026-154AB,2026-07-19T20:00:01.999008,15.80912960,.0001645,53.1589,269.0102,43.5497,65.8910,0,U,69844,999,342,-.42585E-3,-.84095E-3,0
STARLINK-37606,2026-154AC,2026-07-19T20:00:01.999008,15.80920727,.0001064,53.1588,268.9983,91.5594,23.0417,0,U,69845,999,342,-.50431E-3,-.99315E-3,0
STARLINK-37603,2026-154AD,2026-07-19T20:00:01.999008,15.80912722,.0001086,53.1589,268.9915,74.3009,43.6454,0,U,69846,999,342,-.42699E-3,-.8431E-3,0
STARLINK-37595,2026-154AE,2026-07-19T20:00:01.999008,15.80927974,.0000867,53.1590,268.9800,71.6817,51.4622,0,U,69847,999,342,-.5956E-3,-.116966E-2,0
QIANFAN-219,2026-155A,2026-07-19T13:42:55.260288,14.22001674,.0029457,89.0059,60.4479,207.2393,152.7255,0,U,69848,999,200,-.87017E+0,-.1799626E-1,0
QIANFAN-220,2026-155B,2026-07-19T21:12:10.575072,14.17597853,.0029803,89.0063,60.4200,206.4572,153.5097,0,U,69849,999,204,.13542E-4,.42E-6,0
QIANFAN-221,2026-155C,2026-07-19T20:27:43.859808,14.26648253,.0030795,89.0063,60.4155,207.6230,152.3329,0,U,69850,999,204,.6632E-4,.175E-5,0
QIANFAN-222,2026-155D,2026-07-17T19:58:00.985440,14.22185075,.00295553,89.0065,60.6495,214.6997,145.2267,0,U,69851,999,175,.15570034E-4,.49E-6,0
QIANFAN-223,2026-155E,2026-07-19T02:17:50.556192,14.18104033,.0034503,89.0058,60.5062,216.3041,143.5808,0,U,69852,999,193,-.106E+1,-.2023195E-1,0
QIANFAN-224,2026-155F,2026-07-17T21:29:45.028320,14.18497223,.00311144,89.0052,60.6399,224.5648,135.3039,0,U,69853,999,176,-.93450076E+0,-.1809487E-1,0
QIANFAN-225,2026-155G,2026-07-19T07:14:49.573824,14.18662242,.0034268,89.0056,60.4814,215.2357,144.6567,0,U,69854,999,196,-.106E+1,-.2042683E-1,0
QIANFAN-226,2026-155H,2026-07-19T08:52:39.104256,14.17543510,.00336,89.0058,60.4729,218.1332,141.7479,0,U,69855,999,197,-.95337E+0,-.1814487E-1,0
QIANFAN-227,2026-155J,2026-07-19T10:25:51.937824,14.18343532,.0034256,89.0058,60.4639,216.4994,143.3861,0,U,69856,999,198,-.91043E+0,-.174343E-1,0
QIANFAN-228,2026-155K,2026-07-17T23:00:18.463392,14.20295178,.00318777,89.0055,60.6322,218.7208,141.1698,0,U,69857,999,177,-.95328318E+0,-.1902873E-1,0
QIANFAN-229,2026-155L,2026-07-18T20:52:57.173088,14.26690212,.00308184,89.0064,60.5275,210.5909,149.3489,0,U,69858,999,190,.60229541E-4,.161E-5,0
QIANFAN-230,2026-155M,2026-07-17T21:41:32.151840,14.16167691,.00329611,89.0054,60.6411,222.0372,137.8286,0,U,69859,999,176,-.10463152E+1,-.1931944E-1,0
QIANFAN-231,2026-155N,2026-07-18T22:39:37.495872,14.26097133,.00308993,89.0065,60.5202,209.7131,150.2309,0,U,69860,999,191,.71810741E-4,.187E-5,0
QIANFAN-232,2026-155P,2026-07-18T22:32:08.653056,14.22492911,.0029251,89.0055,60.5197,204.9431,155.0349,0,U,69861,999,191,-.92873E+0,-.1928897E-1,0
QIANFAN-233,2026-155Q,2026-07-19T13:39:21.504960,14.22233601,.0028686,89.0060,60.4472,211.5277,148.4197,0,U,69862,999,200,-.7947E+0,-.1641998E-1,0
QIANFAN-234,2026-155R,2026-07-19T20:26:20.319648,14.26759635,.0030727,89.0064,60.4155,207.7190,152.2368,0,U,69863,999,204,.69313E-4,.183E-5,0
QIANFAN-235,2026-155S,2026-07-19T18:45:15.698016,14.26765417,.0030675,89.0063,60.4235,207.9856,151.9690,0,U,69864,999,203,.60076E-4,.161E-5,0
QIANFAN-236,2026-155T,2026-07-19T01:55:16.036608,14.26770514,.00305619,89.0064,60.5035,210.4183,149.5239,0,U,69865,999,193,.72758697E-4,.191E-5,0
QIANFAN-237,2026-155U,2026-07-19T18:45:04.110048,14.26778897,.0030619,89.0064,60.4235,208.0377,151.9169,0,U,69866,999,202,.64449E-4,.171E-5,0
QIANFAN-238,2026-155V,2026-07-19T20:25:57.237888,14.26786445,.0030605,89.0064,60.4154,207.8330,152.1228,0,U,69867,999,204,.70094E-4,.185E-5,0
CZ-8A R/B,2026-155W,2026-07-19T18:41:05.514720,14.48271636,.0106506,88.9655,60.3360,87.8037,273.5360,0,U,69868,999,205,.50675E-4,.222E-5,0
